#aV2024 10 14  0  0  0.00000000     288 DD+AD WGS84 FIT  NGA
## 2336  86400.00000000   300.00000000 60597 0.0000000000000
+   31     2  3  4  5  6  7  8  9 10 11 12 13 14 15 16 17 18
+         19 20 21 22 23 24 25 26 27 28 29 30 31 32  0  0  0
+          0  0  0  0  0  0  0  0  0  0  0  0  0  0  0  0  0
+          0  0  0  0  0  0  0  0  0  0  0  0  0  0  0  0  0
+          0  0  0  0  0  0  0  0  0  0  0  0  0  0  0  0  0
++         2  2  2  2  2  2  2  2  2  2  2  2  2  2  2  2  2
++         2  2  2  2  2  2  2  2  2  2  2  2  2  2  0  0  0
++         0  0  0  0  0  0  0  0  0  0  0  0  0  0  0  0  0
++         0  0  0  0  0  0  0  0  0  0  0  0  0  0  0  0  0
++         0  0  0  0  0  0  0  0  0  0  0  0  0  0  0  0  0
%c cc cc ccc ccc cccc cccc cccc cccc ccccc ccccc ccccc ccccc
%c cc cc ccc ccc cccc cccc cccc cccc ccccc ccccc ccccc ccccc
%f  0.0000000  0.000000000  0.00000000000  0.000000000000000
%f  0.0000000  0.000000000  0.00000000000  0.000000000000000
%i    0    0    0    0      0      0      0      0         0
%i    0    0    0    0      0      0      0      0         0
/*      NGA, ST. LOUIS,MO.                                  
/*   EPHEMERIS COMPUTED FROM 2 DAYS OF DATA                 
/*   EPOCHA v9 SMOOTHER                                     
/*   G2296 IERS2010 SATIGS SATAPC                           
*  2024 10 14 10 15  0.00000000
P  2   7358.518468  13697.418801 -21109.224989   -337.350220                    
V  2 -27534.250204   4158.511967  -6419.494194      0.082486                    
P  3  12504.489634  23323.322832  -3038.724433    569.803271                    
V  3  -3536.629164  -2049.342747 -31937.985362      0.118970                    
P  4   3659.827826  19074.960698  18062.755298    461.463079                    
V  4 -12570.424175  19267.645285 -17956.524442      0.068044                    
P  5  -1065.223874 -20676.730696  16418.640651   -189.750634                    
V  5  13708.188921  16243.076994  21174.556588     -0.012216                    
P  6  25098.100635  -5454.980582   7056.488047    -37.676561                    
V  6   8865.972159   1408.694876 -30641.004910     -0.275584                    
P  7  22674.783114   7777.390423  12443.959748    -27.815327                    
V  7 -14705.815992   2839.410767  25696.061609      0.034322                    
P  8  -4401.769692  24434.325590  -8910.882237    383.906513                    
V  8  -7674.499767   8890.679284  28972.232262      0.116125                    
P  9  11879.274922   9996.377890  21448.566043    398.183577                    
V  9 -12328.629948  24554.340049  -4657.380051      0.165231                    
P 10 -16822.866375  -1223.345938 -20390.449973   -158.124528                    
V 10 -13620.624853 -22413.255297  12123.546843     -0.133693                    
P 11  14502.161017 -12673.460693  18294.190166   -743.795963                    
V 11  23174.395658   1413.653067 -17486.247845     -0.029914                    
P 12  -8317.611799 -24466.222519  -6516.119959   -545.042223                    
V 12   6081.438108   5663.798904 -30301.405846     -0.026633                    
P 13  13290.551126 -22639.082983  -3303.348695    681.388437                    
V 13   4412.750816  -1692.809724  31790.641461      0.017986                    
P 14  18601.542439   4932.093687 -18355.418371    517.272338                    
V 14  10858.613158  20757.410581  16313.717011      0.084067                    
P 15    778.012708 -24885.666407  -9542.261569    215.597067                    
V 15   6648.809991  -9901.946596  28057.186629      0.044602                    
P 16  -5181.113286  17815.961587  18488.190803   -155.227318                    
V 16 -12959.452353 -20690.355861  16450.084999      0.099935                    
P 17  18234.954316  -6733.137264 -17760.900466    595.854635                    
V 17 -10562.786946  20846.326853 -18141.061704     -0.129001                    
P 18 -23454.513329  -6644.529132  10842.916654   -657.899467                    
V 18  13566.685903  -2311.677578  27773.999616     -0.013577                    
P 19  18980.286310 -14050.203091 -11865.505771    550.343392                    
V 19  -6094.509235  13921.125446 -26979.254372      0.046911                    
P 20   8008.281285 -13609.438452  21445.331779    369.685342                    
V 20  18801.752599  19464.792289   5202.442899     -0.003677                    
P 21   1209.537418  14968.026406 -21468.389370     99.791976                    
V 21 -28075.784394   3406.053684   1823.841330     -0.008029                    
P 22  14935.507076  -3521.510411 -21245.105308    -70.918380                    
V 22  12482.004000  25042.222279   4834.331591     -0.033477                    
P 23 -19298.805334 -13746.923550 -12196.712340    341.372578                    
V 23  -7346.145126 -13659.749605  26729.310844      0.081810                    
P 24  -5218.375477 -15317.342762 -21545.322751   -484.796728                    
V 24  26061.886192  -4074.926576  -3079.617854      0.011915                    
P 25 -17293.270998 -19720.633128   4652.280396    499.522436                    
V 25  -1098.107725  -6858.802250 -30603.617958     -0.001172                    
P 26 -13616.279236   8144.313422  21151.644956     56.041208                    
V 26 -16646.754141 -21697.680592  -1962.736425     -0.093843                    
P 27 -12436.283087  23164.261118   1035.914962    -34.544582                    
V 27  -2134.041727  -2956.790411  31977.935213     -0.002128                    
P 28 -25630.628780   5266.455095   4561.038462   -445.420929                    
V 28  -6008.836892  -2251.451889 -31068.925488     -0.128970                    
P 29  -9540.076970 -12495.594766  21349.241675   -571.332056                    
V 29  14732.232488 -22871.585335  -6911.476068      0.026701                    
P 30  26596.045095    501.297292   2512.209603   -302.638834                    
V 30  -2823.967924   3490.378836  30806.909553      0.074606                    
P 31 -19361.654815  10873.647202  14606.795264   -223.404253                    
V 31 -18876.284779  -1534.181132 -23129.705918      0.005607                    
P 32 -17865.742748   9104.099264 -17097.300977   -586.861523                    
V 32   8254.487887 -20701.434493 -19603.512932      0.044241                    
EOF
